{
  "type": "FeatureCollection",
  "features": [
    {
      "type": "Feature",
      "properties": {
        "norad_id": 38250,
        "name": "BEIDOU-2 M3 (C11)",
        "group": "beidou",
        "lat": 52.87809240210484,
        "lon": 14.040430612674195,
        "alt_km": 21584.524188069485,
        "timestamp": "2025-12-26T22:28:06.049408+00:00",
        "meta_object_name": "BEIDOU-2 M3 (C11)",
        "meta_object_id": "2012-018A",
        "meta_epoch": "2025-12-26T06:54:56.796768",
        "meta_mean_motion": 1.86230094,
        "meta_eccentricity": 0.002406,
        "meta_inclination": 55.9085,
        "meta_ra_of_asc_node": 310.7027,
        "meta_arg_of_pericenter": 275.5278,
        "meta_mean_anomaly": 84.2034,
        "meta_ephemeris_type": 0,
        "meta_classification_type": "U",
        "meta_norad_cat_id": 38250,
        "meta_element_set_no": 999,
        "meta_rev_at_epoch": 9272,
        "meta_bstar": 0,
        "meta_mean_motion_dot": -5.6e-07,
        "meta_mean_motion_ddot": 0,
        "tle_line1": "1 38250U 12018A   25360.28815737 -.00000056  00000+0  00000+0 0  9997",
        "tle_line2": "2 38250  55.9085 310.7027 0024060 275.5278  84.2034  1.86230094 92724"
      },
      "geometry": {
        "type": "Point",
        "coordinates": [
          14.040430612674195,
          52.87809240210484
        ]
      }
    },
    {
      "type": "Feature",
      "properties": {
        "norad_id": 38251,
        "name": "BEIDOU-2 M4 (C12)",
        "group": "beidou",
        "lat": 45.87240963346489,
        "lon": 85.45372235641378,
        "alt_km": 21562.519349016704,
        "timestamp": "2025-12-26T22:28:06.049419+00:00",
        "meta_object_name": "BEIDOU-2 M4 (C12)",
        "meta_object_id": "2012-018B",
        "meta_epoch": "2025-12-26T05:17:08.086272",
        "meta_mean_motion": 1.86229697,
        "meta_eccentricity": 0.0015168,
        "meta_inclination": 55.8099,
        "meta_ra_of_asc_node": 309.9329,
        "meta_arg_of_pericenter": 279.7877,
        "meta_mean_anomaly": 80.0472,
        "meta_ephemeris_type": 0,
        "meta_classification_type": "U",
        "meta_norad_cat_id": 38251,
        "meta_element_set_no": 999,
        "meta_rev_at_epoch": 9272,
        "meta_bstar": 0,
        "meta_mean_motion_dot": -5.5e-07,
        "meta_mean_motion_ddot": 0,
        "tle_line1": "1 38251U 12018B   25360.22023248 -.00000055  00000+0  00000+0 0  9999",
        "tle_line2": "2 38251  55.8099 309.9329 0015168 279.7877  80.0472  1.86229697 92721"
      },
      "geometry": {
        "type": "Point",
        "coordinates": [
          85.45372235641378,
          45.87240963346489
        ]
      }
    },
    {
      "type": "Feature",
      "properties": {
        "norad_id": 38775,
        "name": "BEIDOU-2 M6 (C14)",
        "group": "beidou",
        "lat": -36.96742763152725,
        "lon": 38.6132909493456,
        "alt_km": 21504.71203090379,
        "timestamp": "2025-12-26T22:28:06.049431+00:00",
        "meta_object_name": "BEIDOU-2 M6 (C14)",
        "meta_object_id": "2012-050B",
        "meta_epoch": "2025-12-24T07:41:05.368128",
        "meta_mean_motion": 1.86230801,
        "meta_eccentricity": 0.00114872,
        "meta_inclination": 56.388,
        "meta_ra_of_asc_node": 68.6832,
        "meta_arg_of_pericenter": 343.1884,
        "meta_mean_anomaly": 16.8281,
        "meta_ephemeris_type": 0,
        "meta_classification_type": "U",
        "meta_norad_cat_id": 38775,
        "meta_element_set_no": 999,
        "meta_rev_at_epoch": 9005,
        "meta_bstar": 0,
        "meta_mean_motion_dot": -2.4e-07,
        "meta_mean_motion_ddot": 0,
        "tle_line1": "1 38775U 12050B   25358.32020102 -.00000024  00000+0  00000+0 0  9996",
        "tle_line2": "2 38775  56.3880  68.6832 0011487 343.1884  16.8281  1.86230801 90056"
      },
      "geometry": {
        "type": "Point",
        "coordinates": [
          38.6132909493456,
          -36.96742763152725
        ]
      }
    },
    {
      "type": "Feature",
      "properties": {
        "norad_id": 38953,
        "name": "BEIDOU-2 G6 (C02)",
        "group": "beidou",
        "lat": 3.949612331962769,
        "lon": 156.67434690878864,
        "alt_km": 35812.833319474674,
        "timestamp": "2025-12-26T22:28:06.049442+00:00",
        "meta_object_name": "BEIDOU-2 G6 (C02)",
        "meta_object_id": "2012-059A",
        "meta_epoch": "2025-12-26T19:19:49.071648",
        "meta_mean_motion": 1.0027449,
        "meta_eccentricity": 0.0007915,
        "meta_inclination": 3.9829,
        "meta_ra_of_asc_node": 75.3724,
        "meta_arg_of_pericenter": 293.8326,
        "meta_mean_anomaly": 100.2446,
        "meta_ephemeris_type": 0,
        "meta_classification_type": "U",
        "meta_norad_cat_id": 38953,
        "meta_element_set_no": 999,
        "meta_rev_at_epoch": 4818,
        "meta_bstar": 0,
        "meta_mean_motion_dot": -1.55e-06,
        "meta_mean_motion_ddot": 0,
        "tle_line1": "1 38953U 12059A   25360.80542907 -.00000155  00000+0  00000+0 0  9996",
        "tle_line2": "2 38953   3.9829  75.3724 0007915 293.8326 100.2446  1.00274490 48189"
      },
      "geometry": {
        "type": "Point",
        "coordinates": [
          156.67434690878864,
          3.949612331962769
        ]
      }
    },
    {
      "type": "Feature",
      "properties": {
        "norad_id": 40549,
        "name": "BEIDOU-3S IGSO-1S (C31)",
        "group": "beidou",
        "lat": -35.83179586134479,
        "lon": 155.5126144571126,
        "alt_km": 35661.475105979756,
        "timestamp": "2025-12-26T22:28:06.049455+00:00",
        "meta_object_name": "BEIDOU-3S IGSO-1S (C31)",
        "meta_object_id": "2015-019A",
        "meta_epoch": "2025-12-26T19:27:32.429664",
        "meta_mean_motion": 1.00290016,
        "meta_eccentricity": 0.0036511,
        "meta_inclination": 49.5251,
        "meta_ra_of_asc_node": 297.5457,
        "meta_arg_of_pericenter": 194.1839,
        "meta_mean_anomaly": 350.566,
        "meta_ephemeris_type": 0,
        "meta_classification_type": "U",
        "meta_norad_cat_id": 40549,
        "meta_element_set_no": 999,
        "meta_rev_at_epoch": 3934,
        "meta_bstar": 0,
        "meta_mean_motion_dot": -1.81e-06,
        "meta_mean_motion_ddot": 0,
        "tle_line1": "1 40549U 15019A   25360.81079201 -.00000181  00000+0  00000+0 0  9991",
        "tle_line2": "2 40549  49.5251 297.5457 0036511 194.1839 350.5660  1.00290016 39343"
      },
      "geometry": {
        "type": "Point",
        "coordinates": [
          155.5126144571126,
          -35.83179586134479
        ]
      }
    },
    {
      "type": "Feature",
      "properties": {
        "norad_id": 40748,
        "name": "BEIDOU-3S M2S (C58)",
        "group": "beidou",
        "lat": -14.247834322169204,
        "lon": -62.26713859204098,
        "alt_km": 21519.595263750754,
        "timestamp": "2025-12-26T22:28:06.049466+00:00",
        "meta_object_name": "BEIDOU-3S M2S (C58)",
        "meta_object_id": "2015-037A",
        "meta_epoch": "2025-12-24T19:32:44.901312",
        "meta_mean_motion": 1.86229543,
        "meta_eccentricity": 0.00118109,
        "meta_inclination": 55.028,
        "meta_ra_of_asc_node": 308.0499,
        "meta_arg_of_pericenter": 271.2412,
        "meta_mean_anomaly": 88.6304,
        "meta_ephemeris_type": 0,
        "meta_classification_type": "U",
        "meta_norad_cat_id": 40748,
        "meta_element_set_no": 999,
        "meta_rev_at_epoch": 7087,
        "meta_bstar": 0,
        "meta_mean_motion_dot": -5.3e-07,
        "meta_mean_motion_ddot": 0,
        "tle_line1": "1 40748U 15037A   25358.81440858 -.00000053  00000+0  00000+0 0  9997",
        "tle_line2": "2 40748  55.0280 308.0499 0011810 271.2412  88.6304  1.86229543 70879"
      },
      "geometry": {
        "type": "Point",
        "coordinates": [
          -62.26713859204098,
          -14.247834322169204
        ]
      }
    },
    {
      "type": "Feature",
      "properties": {
        "norad_id": 40749,
        "name": "BEIDOU-3S M1S (C57)",
        "group": "beidou",
        "lat": -7.774008369559105,
        "lon": 133.4286350263765,
        "alt_km": 21537.37192565441,
        "timestamp": "2025-12-26T22:28:06.049478+00:00",
        "meta_object_name": "BEIDOU-3S M1S (C57)",
        "meta_object_id": "2015-037B",
        "meta_epoch": "2025-12-26T02:48:07.376256",
        "meta_mean_motion": 1.86253839,
        "meta_eccentricity": 0.0003725,
        "meta_inclination": 55.0231,
        "meta_ra_of_asc_node": 307.9941,
        "meta_arg_of_pericenter": 3.0016,
        "meta_mean_anomaly": 357.0085,
        "meta_ephemeris_type": 0,
        "meta_classification_type": "U",
        "meta_norad_cat_id": 40749,
        "meta_element_set_no": 999,
        "meta_rev_at_epoch": 7090,
        "meta_bstar": 0,
        "meta_mean_motion_dot": -5.5e-07,
        "meta_mean_motion_ddot": 0,
        "tle_line1": "1 40749U 15037B   25360.11675204 -.00000055  00000+0  00000+0 0  9991",
        "tle_line2": "2 40749  55.0231 307.9941 0003725   3.0016 357.0085  1.86253839 70901"
      },
      "geometry": {
        "type": "Point",
        "coordinates": [
          133.4286350263765,
          -7.774008369559105
        ]
      }
    }
  ]
}